CCSDS_OMM_VERS = 2.0
CREATION_DATE  = 
ORIGINATOR     = 

OBJECT_NAME    = SL-4 R/B
OBJECT_ID      = 2014-021B
CENTER_NAME    = EARTH
REF_FRAME      = TEME
TIME_SYSTEM    = UTC
MEAN_ELEMENT_THEORY = SGP/SGP4

EPOCH          = 2026-01-22T12:10:52.584384
MEAN_MOTION    = 15.37726929
ECCENTRICITY   = .0099114
INCLINATION    = 51.6059
RA_OF_ASC_NODE = 202.3165
ARG_OF_PERICENTER = 294.3817
MEAN_ANOMALY   = 64.6847

EPHEMERIS_TYPE = 0
CLASSIFICATION_TYPE = U
NORAD_CAT_ID   = 39679
ELEMENT_SET_NO = 999
REV_AT_EPOCH   = 64916
BSTAR          = .31755E-3
MEAN_MOTION_DOT = .13717E-3
MEAN_MOTION_DDOT = 0

CCSDS_OMM_VERS = 2.0
CREATION_DATE  = 
ORIGINATOR     = 

OBJECT_NAME    = ALOS-2
OBJECT_ID      = 2014-029A
CENTER_NAME    = EARTH
REF_FRAME      = TEME
TIME_SYSTEM    = UTC
MEAN_ELEMENT_THEORY = SGP/SGP4

EPOCH          = 2026-01-22T12:36:55.022112
MEAN_MOTION    = 14.79459899
ECCENTRICITY   = .0001474
INCLINATION    = 97.9202
RA_OF_ASC_NODE = 121.7864
ARG_OF_PERICENTER = 103.3925
MEAN_ANOMALY   = 256.7451

EPHEMERIS_TYPE = 0
CLASSIFICATION_TYPE = U
NORAD_CAT_ID   = 39766
ELEMENT_SET_NO = 999
REV_AT_EPOCH   = 63004
BSTAR          = .24428E-3
MEAN_MOTION_DOT = .1773E-4
MEAN_MOTION_DDOT = 0

CCSDS_OMM_VERS = 2.0
CREATION_DATE  = 
ORIGINATOR     = 

OBJECT_NAME    = YAOGAN-29
OBJECT_ID      = 2015-069A
CENTER_NAME    = EARTH
REF_FRAME      = TEME
TIME_SYSTEM    = UTC
MEAN_ELEMENT_THEORY = SGP/SGP4

EPOCH          = 2026-01-22T12:11:06.885312
MEAN_MOTION    = 14.82941011
ECCENTRICITY   = .0002672
INCLINATION    = 98.0184
RA_OF_ASC_NODE = 50.8045
ARG_OF_PERICENTER = 113.7554
MEAN_ANOMALY   = 246.3940

EPHEMERIS_TYPE = 0
CLASSIFICATION_TYPE = U
NORAD_CAT_ID   = 41038
ELEMENT_SET_NO = 999
REV_AT_EPOCH   = 54903
BSTAR          = .28548E-3
MEAN_MOTION_DOT = .2263E-4
MEAN_MOTION_DDOT = 0

CCSDS_OMM_VERS = 2.0
CREATION_DATE  = 
ORIGINATOR     = 

OBJECT_NAME    = ASTRO-H (HITOMI)
OBJECT_ID      = 2016-012A
CENTER_NAME    = EARTH
REF_FRAME      = TEME
TIME_SYSTEM    = UTC
MEAN_ELEMENT_THEORY = SGP/SGP4

EPOCH          = 2026-01-22T10:09:06.894144
MEAN_MOTION    = 15.09652282
ECCENTRICITY   = .0009853
INCLINATION    = 31.0001
RA_OF_ASC_NODE = 295.0414
ARG_OF_PERICENTER = 228.6623
MEAN_ANOMALY   = 131.3168

EPHEMERIS_TYPE = 0
CLASSIFICATION_TYPE = U
NORAD_CAT_ID   = 41337
ELEMENT_SET_NO = 999
REV_AT_EPOCH   = 54523
BSTAR          = .25365E-3
MEAN_MOTION_DOT = .4282E-4
MEAN_MOTION_DDOT = 0

CCSDS_OMM_VERS = 2.0
CREATION_DATE  = 
ORIGINATOR     = 

OBJECT_NAME    = HXMT (HUIYAN)
OBJECT_ID      = 2017-034A
CENTER_NAME    = EARTH
REF_FRAME      = TEME
TIME_SYSTEM    = UTC
MEAN_ELEMENT_THEORY = SGP/SGP4

EPOCH          = 2026-01-22T02:23:19.538016
MEAN_MOTION    = 15.16830638
ECCENTRICITY   = .00332459
INCLINATION    = 43.0139
RA_OF_ASC_NODE = 275.5743
ARG_OF_PERICENTER = 298.8020
MEAN_ANOMALY   = 60.9491

EPHEMERIS_TYPE = 0
CLASSIFICATION_TYPE = U
NORAD_CAT_ID   = 42758
ELEMENT_SET_NO = 999
REV_AT_EPOCH   = 47546
BSTAR          = .49760852E-3
MEAN_MOTION_DOT = .9878E-4
MEAN_MOTION_DDOT = 0

CCSDS_OMM_VERS = 2.0
CREATION_DATE  = 
ORIGINATOR     = 

OBJECT_NAME    = CZ-2C R/B
OBJECT_ID      = 2018-054D
CENTER_NAME    = EARTH
REF_FRAME      = TEME
TIME_SYSTEM    = UTC
MEAN_ELEMENT_THEORY = SGP/SGP4

EPOCH          = 2026-01-22T09:04:26.399712
MEAN_MOTION    = 15.86194763
ECCENTRICITY   = .0012118
INCLINATION    = 35.1312
RA_OF_ASC_NODE = 263.1566
ARG_OF_PERICENTER = 212.3021
MEAN_ANOMALY   = 147.6975

EPHEMERIS_TYPE = 0
CLASSIFICATION_TYPE = U
NORAD_CAT_ID   = 43521
ELEMENT_SET_NO = 999
REV_AT_EPOCH   = 42148
BSTAR          = .78744E-3
MEAN_MOTION_DOT = .210036E-2
MEAN_MOTION_DDOT = 0

CCSDS_OMM_VERS = 2.0
CREATION_DATE  = 
ORIGINATOR     = 

OBJECT_NAME    = SAOCOM 1A
OBJECT_ID      = 2018-076A
CENTER_NAME    = EARTH
REF_FRAME      = TEME
TIME_SYSTEM    = UTC
MEAN_ELEMENT_THEORY = SGP/SGP4

EPOCH          = 2026-01-22T12:22:43.256352
MEAN_MOTION    = 14.82161681
ECCENTRICITY   = .0001476
INCLINATION    = 97.8852
RA_OF_ASC_NODE = 211.3458
ARG_OF_PERICENTER = 84.8343
MEAN_ANOMALY   = 275.3038

EPHEMERIS_TYPE = 0
CLASSIFICATION_TYPE = U
NORAD_CAT_ID   = 43641
ELEMENT_SET_NO = 999
REV_AT_EPOCH   = 39452
BSTAR          = .13547E-3
MEAN_MOTION_DOT = .1027E-4
MEAN_MOTION_DDOT = 0

CCSDS_OMM_VERS = 2.0
CREATION_DATE  = 
ORIGINATOR     = 

OBJECT_NAME    = H-2A R/B
OBJECT_ID      = 2018-084L
CENTER_NAME    = EARTH
REF_FRAME      = TEME
TIME_SYSTEM    = UTC
MEAN_ELEMENT_THEORY = SGP/SGP4

EPOCH          = 2026-01-22T11:29:47.187168
MEAN_MOTION    = 15.39182974
ECCENTRICITY   = .0025991
INCLINATION    = 98.8756
RA_OF_ASC_NODE = 230.0629
ARG_OF_PERICENTER = 182.3297
MEAN_ANOMALY   = 177.7827

EPHEMERIS_TYPE = 0
CLASSIFICATION_TYPE = U
NORAD_CAT_ID   = 43682
ELEMENT_SET_NO = 999
REV_AT_EPOCH   = 39866
BSTAR          = .57229E-3
MEAN_MOTION_DOT = .22422E-3
MEAN_MOTION_DDOT = 0

CCSDS_OMM_VERS = 2.0
CREATION_DATE  = 
ORIGINATOR     = 

OBJECT_NAME    = SAOCOM 1B
OBJECT_ID      = 2020-059A
CENTER_NAME    = EARTH
REF_FRAME      = TEME
TIME_SYSTEM    = UTC
MEAN_ELEMENT_THEORY = SGP/SGP4

EPOCH          = 2026-01-22T11:30:25.947072
MEAN_MOTION    = 14.82164481
ECCENTRICITY   = .0001379
INCLINATION    = 97.8848
RA_OF_ASC_NODE = 210.4086
ARG_OF_PERICENTER = 91.0413
MEAN_ANOMALY   = 269.0958

EPHEMERIS_TYPE = 0
CLASSIFICATION_TYPE = U
NORAD_CAT_ID   = 46265
ELEMENT_SET_NO = 999
REV_AT_EPOCH   = 29190
BSTAR          = .24572E-3
MEAN_MOTION_DOT = .1905E-4
MEAN_MOTION_DDOT = 0

CCSDS_OMM_VERS = 2.0
CREATION_DATE  = 
ORIGINATOR     = 

OBJECT_NAME    = CSS (TIANHE)
OBJECT_ID      = 2021-035A
CENTER_NAME    = EARTH
REF_FRAME      = TEME
TIME_SYSTEM    = UTC
MEAN_ELEMENT_THEORY = SGP/SGP4

EPOCH          = 2026-01-22T08:47:33.113472
MEAN_MOTION    = 15.60894995
ECCENTRICITY   = .0010464
INCLINATION    = 41.4670
RA_OF_ASC_NODE = 129.7501
ARG_OF_PERICENTER = 336.4188
MEAN_ANOMALY   = 23.6170

EPHEMERIS_TYPE = 0
CLASSIFICATION_TYPE = U
NORAD_CAT_ID   = 48274
ELEMENT_SET_NO = 999
REV_AT_EPOCH   = 27037
BSTAR          = .27251E-3
MEAN_MOTION_DOT = .23242E-3
MEAN_MOTION_DDOT = 0

CCSDS_OMM_VERS = 2.0
CREATION_DATE  = 
ORIGINATOR     = 

OBJECT_NAME    = COSMOS 2550
OBJECT_ID      = 2021-056A
CENTER_NAME    = EARTH
REF_FRAME      = TEME
TIME_SYSTEM    = UTC
MEAN_ELEMENT_THEORY = SGP/SGP4

EPOCH          = 2026-01-22T03:42:50.336928
MEAN_MOTION    = 15.33814421
ECCENTRICITY   = .00084002
INCLINATION    = 67.1415
RA_OF_ASC_NODE = 181.6885
ARG_OF_PERICENTER = 270.1837
MEAN_ANOMALY   = 89.8355

EPHEMERIS_TYPE = 0
CLASSIFICATION_TYPE = U
NORAD_CAT_ID   = 48865
ELEMENT_SET_NO = 999
REV_AT_EPOCH   = 25632
BSTAR          = -.350505E-6
MEAN_MOTION_DOT = -.203E-5
MEAN_MOTION_DDOT = 0

CCSDS_OMM_VERS = 2.0
CREATION_DATE  = 
ORIGINATOR     = 

OBJECT_NAME    = CZ-2C R/B
OBJECT_ID      = 2022-058K
CENTER_NAME    = EARTH
REF_FRAME      = TEME
TIME_SYSTEM    = UTC
MEAN_ELEMENT_THEORY = SGP/SGP4

EPOCH          = 2026-01-22T11:51:56.225664
MEAN_MOTION    = 15.50970553
ECCENTRICITY   = .0042626
INCLINATION    = 50.1891
RA_OF_ASC_NODE = 195.3354
ARG_OF_PERICENTER = 6.0310
MEAN_ANOMALY   = 354.1164

EPHEMERIS_TYPE = 0
CLASSIFICATION_TYPE = U
NORAD_CAT_ID   = 52794
ELEMENT_SET_NO = 999
REV_AT_EPOCH   = 20295
BSTAR          = .50476E-3
MEAN_MOTION_DOT = .30635E-3
MEAN_MOTION_DDOT = 0

