SL-4 R/B                
1 39679U 14021B   26022.50755306  .00013717  00000+0  31755-3 0  9997
2 39679  51.6059 202.3165 0099114 294.3817  64.6847 15.37726929649161
ALOS-2                  
1 39766U 14029A   26022.52563683  .00001773  00000+0  24428-3 0  9997
2 39766  97.9202 121.7864 0001474 103.3925 256.7451 14.79459899630048
YAOGAN-29               
1 41038U 15069A   26022.50771858  .00002263  00000+0  28548-3 0  9992
2 41038  98.0184  50.8045 0002672 113.7554 246.3940 14.82941011549033
ASTRO-H (HITOMI)        
1 41337U 16012A   26022.42299646  .00004282  00000+0  25365-3 0  9991
2 41337  31.0001 295.0414 0009853 228.6623 131.3168 15.09652282545236
HXMT (HUIYAN)           
1 42758U 17034A   26022.09953169  .00009878  00000+0  49761-3 0  9996
2 42758  43.0139 275.5743 0033245 298.8020  60.9491 15.16830638475463
CZ-2C R/B               
1 43521U 18054D   26022.37808333  .00210036  00000+0  78744-3 0  9994
2 43521  35.1312 263.1566 0012118 212.3021 147.6975 15.86194763421483
SAOCOM 1A               
1 43641U 18076A   26022.51577843  .00001027  00000+0  13547-3 0  9994
2 43641  97.8852 211.3458 0001476  84.8343 275.3038 14.82161681394520
H-2A R/B                
1 43682U 18084L   26022.47901837  .00022422  00000+0  57229-3 0  9994
2 43682  98.8756 230.0629 0025991 182.3297 177.7827 15.39182974398668
SAOCOM 1B               
1 46265U 20059A   26022.47946698  .00001905  00000+0  24572-3 0  9991
2 46265  97.8848 210.4086 0001379  91.0413 269.0958 14.82164481291907
CSS (TIANHE)            
1 48274U 21035A   26022.36635548  .00023242  00000+0  27251-3 0  9990
2 48274  41.4670 129.7501 0010464 336.4188  23.6170 15.60894995270376
COSMOS 2550             
1 48865U 21056A   26022.15474927 -.00000203  00000+0 -35051-6 0  9992
2 48865  67.1415 181.6885 0008400 270.1837  89.8355 15.33814421256322
CZ-2C R/B               
1 52794U 22058K   26022.49440076  .00030635  00000+0  50476-3 0  9991
2 52794  50.1891 195.3354 0042626   6.0310 354.1164 15.50970553202955
